[{"OBJECT_NAME":"STARLINK-36434","OBJECT_ID":"2026-002T","EPOCH":"2026-03-09T03:43:11.626752","MEAN_MOTION":15.27498947,"ECCENTRICITY":0.00011603,"INCLINATION":43.0012,"RA_OF_ASC_NODE":328.5885,"ARG_OF_PERICENTER":309.9605,"MEAN_ANOMALY":50.1144,"EPHEMERIS_TYPE":0,"CLASSIFICATION_TYPE":"U","NORAD_CAT_ID":67322,"ELEMENT_SET_NO":999,"REV_AT_EPOCH":1099,"BSTAR":0.0012314494,"MEAN_MOTION_DOT":0.00033696,"MEAN_MOTION_DDOT":0},{"OBJECT_NAME":"SL-3 R\/B","OBJECT_ID":"1981-065B","EPOCH":"2026-03-09T21:58:16.284000","MEAN_MOTION":15.33300883,"ECCENTRICITY":0.00117648,"INCLINATION":97.6337,"RA_OF_ASC_NODE":111.1786,"ARG_OF_PERICENTER":10.529,"MEAN_ANOMALY":349.6196,"EPHEMERIS_TYPE":0,"CLASSIFICATION_TYPE":"U","NORAD_CAT_ID":12586,"ELEMENT_SET_NO":999,"REV_AT_EPOCH":43499,"BSTAR":0.00030084921,"MEAN_MOTION_DOT":9.62e-5,"MEAN_MOTION_DDOT":0}]
